{
  "type": "FeatureCollection",
  "generator": "overpass-turbo",
  "copyright": "The data included in this document is from www.openstreetmap.org. The data is made available under ODbL.",
  "timestamp": "2026-05-07T12:15:30Z",
  "features": [
    {
      "type": "Feature",
      "properties": {
        "@id": "relation/15076601",
        "admin_level": "6",
        "boundary": "administrative",
        "name": "General Mamerto Natividad",
        "name:ko": "헤네랄마메르토나티비다드",
        "old_ref": "034909000",
        "population": "44311",
        "population:date": "2020-05-01",
        "ref": "0304909000",
        "source:population": "Philippine Statistics Authority",
        "type": "boundary",
        "wikidata": "Q55549",
        "wikipedia": "en:General Mamerto Natividad"
      },
      "geometry": {
        "type": "Polygon",
        "coordinates": [
          [
            [
              120.9815752,
              15.551359
            ],
            [
              120.9816865,
              15.5512352
            ],
            [
              120.981788,
              15.5509776
            ],
            [
              120.9819439,
              15.5505134
            ],
            [
              120.9821352,
              15.5499878
            ],
            [
              120.9822137,
              15.5499187
            ],
            [
              120.9824,
              15.5498587
            ],
            [
              120.9824857,
              15.549806
            ],
            [
              120.9824902,
              15.5497524
            ],
            [
              120.982462,
              15.5497085
            ],
            [
              120.9824006,
              15.5496498
            ],
            [
              120.9823003,
              15.5495565
            ],
            [
              120.9822931,
              15.5495128
            ],
            [
              120.9822959,
              15.5494692
            ],
            [
              120.9826387,
              15.5487832
            ],
            [
              120.982719,
              15.5484672
            ],
            [
              120.982679,
              15.5483277
            ],
            [
              120.9825848,
              15.5481969
            ],
            [
              120.9824757,
              15.5479196
            ],
            [
              120.9824417,
              15.547756
            ],
            [
              120.9823536,
              15.5475924
            ],
            [
              120.9821682,
              15.5472782
            ],
            [
              120.982077,
              15.5472105
            ],
            [
              120.9818818,
              15.5470863
            ],
            [
              120.9816226,
              15.5467986
            ],
            [
              120.9813806,
              15.5465654
            ],
            [
              120.9812651,
              15.5463496
            ],
            [
              120.981177,
              15.5459947
            ],
            [
              120.9810175,
              15.5457012
            ],
            [
              120.980993,
              15.5455625
            ],
            [
              120.980991,
              15.5454217
            ],
            [
              120.9810939,
              15.5449974
            ],
            [
              120.9811963,
              15.5448172
            ],
            [
              120.9813032,
              15.544663
            ],
            [
              120.9814011,
              15.5445188
            ],
            [
              120.9814516,
              15.544392
            ],
            [
              120.9815005,
              15.5442046
            ],
            [
              120.9815675,
              15.5440608
            ],
            [
              120.9816743,
              15.543734
            ],
            [
              120.9816865,
              15.5434311
            ],
            [
              120.9817138,
              15.5433074
            ],
            [
              120.9817299,
              15.5431618
            ],
            [
              120.9818176,
              15.5429809
            ],
            [
              120.9819662,
              15.5428523
            ],
            [
              120.9821464,
              15.5428067
            ],
            [
              120.9823672,
              15.542772
            ],
            [
              120.982561,
              15.5427598
            ],
            [
              120.9827344,
              15.5427237
            ],
            [
              120.9829187,
              15.5425743
            ],
            [
              120.9830804,
              15.5423683
            ],
            [
              120.9833869,
              15.5420963
            ],
            [
              120.9856614,
              15.5414761
            ],
            [
              120.987657,
              15.5412074
            ],
            [
              120.9931817,
              15.5411361
            ],
            [
              120.994224,
              15.5405597
            ],
            [
              120.9944647,
              15.5407327
            ],
            [
              120.9949368,
              15.5409859
            ],
            [
              120.995138,
              15.5410066
            ],
            [
              120.9953874,
              15.5409859
            ],
            [
              120.9961599,
              15.5408154
            ],
            [
              120.9965622,
              15.5407999
            ],
            [
              120.9969056,
              15.5408748
            ],
            [
              120.9973508,
              15.541048
            ],
            [
              120.997611,
              15.5411255
            ],
            [
              120.9980401,
              15.5412547
            ],
            [
              120.9983057,
              15.5413839
            ],
            [
              120.9984237,
              15.5414588
            ],
            [
              121.0013205,
              15.5432186
            ],
            [
              121.0022539,
              15.543446
            ],
            [
              121.0028547,
              15.5435752
            ],
            [
              121.0032731,
              15.5435597
            ],
            [
              121.0037237,
              15.5434667
            ],
            [
              121.004684,
              15.5434564
            ],
            [
              121.0057568,
              15.5437199
            ],
            [
              121.0059822,
              15.5439835
            ],
            [
              121.0061377,
              15.5445469
            ],
            [
              121.0062638,
              15.5451748
            ],
            [
              121.0064355,
              15.5454229
            ],
            [
              121.0067546,
              15.5456709
            ],
            [
              121.0084015,
              15.5469345
            ],
            [
              121.0093027,
              15.5477356
            ],
            [
              121.0100269,
              15.5485057
            ],
            [
              121.0104561,
              15.5489139
            ],
            [
              121.0107189,
              15.5491568
            ],
            [
              121.0109121,
              15.549224
            ],
            [
              121.0119098,
              15.5492266
            ],
            [
              121.0128084,
              15.5490897
            ],
            [
              121.0152626,
              15.5481956
            ],
            [
              121.01596,
              15.5481336
            ],
            [
              121.0169578,
              15.548361
            ],
            [
              121.0174191,
              15.548609
            ],
            [
              121.0177141,
              15.5486814
            ],
            [
              121.0182345,
              15.5485728
            ],
            [
              121.0198653,
              15.5478183
            ],
            [
              121.0202515,
              15.547441
            ],
            [
              121.0205466,
              15.5470999
            ],
            [
              121.0207987,
              15.5469345
            ],
            [
              121.0214907,
              15.5466865
            ],
            [
              121.0221076,
              15.5465418
            ],
            [
              121.0229874,
              15.5464849
            ],
            [
              121.0246879,
              15.5465366
            ],
            [
              121.0262489,
              15.5466245
            ],
            [
              121.0277992,
              15.546919
            ],
            [
              121.02862,
              15.5470999
            ],
            [
              121.0291833,
              15.5471464
            ],
            [
              121.0306156,
              15.5471723
            ],
            [
              121.0307711,
              15.5471826
            ],
            [
              121.0317126,
              15.5471723
            ],
            [
              121.0319164,
              15.5470999
            ],
            [
              121.032072,
              15.546963
            ],
            [
              121.0321096,
              15.5468157
            ],
            [
              121.0321364,
              15.5465469
            ],
            [
              121.0322142,
              15.5463661
            ],
            [
              121.0323483,
              15.5461903
            ],
            [
              121.0327587,
              15.545826
            ],
            [
              121.0339093,
              15.5445055
            ],
            [
              121.034494,
              15.5439008
            ],
            [
              121.0348588,
              15.5436786
            ],
            [
              121.0357091,
              15.543415
            ],
            [
              121.036157,
              15.5434202
            ],
            [
              121.0363179,
              15.5433478
            ],
            [
              121.0363823,
              15.5432884
            ],
            [
              121.0364681,
              15.543229
            ],
            [
              121.036554,
              15.5432212
            ],
            [
              121.0367471,
              15.5432626
            ],
            [
              121.0370368,
              15.5434254
            ],
            [
              121.0373533,
              15.5438285
            ],
            [
              121.0375732,
              15.5444228
            ],
            [
              121.0377878,
              15.5451464
            ],
            [
              121.0380024,
              15.545503
            ],
            [
              121.0382706,
              15.5458596
            ],
            [
              121.0390323,
              15.5470482
            ],
            [
              121.0396117,
              15.5476839
            ],
            [
              121.0407919,
              15.5484178
            ],
            [
              121.0418916,
              15.5490741
            ],
            [
              121.0426748,
              15.5492809
            ],
            [
              121.0438845,
              15.5493067
            ],
            [
              121.0441098,
              15.5493351
            ],
            [
              121.0443324,
              15.5493222
            ],
            [
              121.0448635,
              15.5490793
            ],
            [
              121.0451987,
              15.5489604
            ],
            [
              121.0453771,
              15.548923
            ],
            [
              121.0455649,
              15.548923
            ],
            [
              121.0458331,
              15.5490108
            ],
            [
              121.0459833,
              15.5490444
            ],
            [
              121.0461925,
              15.5490561
            ],
            [
              121.0465103,
              15.549038
            ],
            [
              121.0475966,
              15.5488493
            ],
            [
              121.0481974,
              15.5487227
            ],
            [
              121.0484979,
              15.5486297
            ],
            [
              121.0491523,
              15.5482989
            ],
            [
              121.0494313,
              15.5481749
            ],
            [
              121.0496002,
              15.5480612
            ],
            [
              121.0499302,
              15.547733
            ],
            [
              121.0501313,
              15.54764
            ],
            [
              121.0512203,
              15.5475289
            ],
            [
              121.0525185,
              15.5475625
            ],
            [
              121.0532655,
              15.5476167
            ],
            [
              121.0534103,
              15.5476749
            ],
            [
              121.0535149,
              15.5477576
            ],
            [
              121.0537201,
              15.5479953
            ],
            [
              121.0538703,
              15.5481013
            ],
            [
              121.0541895,
              15.5482214
            ],
            [
              121.0557908,
              15.5484075
            ],
            [
              121.0589343,
              15.5491129
            ],
            [
              121.0590872,
              15.5491698
            ],
            [
              121.0594976,
              15.5492447
            ],
            [
              121.0598999,
              15.5492705
            ],
            [
              121.0602996,
              15.5492008
            ],
            [
              121.0606751,
              15.5489966
            ],
            [
              121.0607582,
              15.5489139
            ],
            [
              121.0609058,
              15.5487331
            ],
            [
              121.0610801,
              15.5486529
            ],
            [
              121.0614449,
              15.5486323
            ],
            [
              121.062389,
              15.5488778
            ],
            [
              121.064111,
              15.549653
            ],
            [
              121.0658222,
              15.5505832
            ],
            [
              121.0659885,
              15.5507434
            ],
            [
              121.0661387,
              15.5509967
            ],
            [
              121.0667054,
              15.551669
            ],
            [
              121.0672063,
              15.5520406
            ],
            [
              121.0680485,
              15.5524541
            ],
            [
              121.0713422,
              15.5537874
            ],
            [
              121.0743356,
              15.555374
            ],
            [
              121.074577,
              15.5554256
            ],
            [
              121.0748023,
              15.5553946
            ],
            [
              121.0755533,
              15.5551156
            ],
            [
              121.0764599,
              15.5545542
            ],
            [
              121.0781014,
              15.5536427
            ],
            [
              121.0811591,
              15.5519786
            ],
            [
              121.0829656,
              15.5508481
            ],
            [
              121.0831855,
              15.5507228
            ],
            [
              121.0833223,
              15.5506879
            ],
            [
              121.0834551,
              15.5506866
            ],
            [
              121.0837099,
              15.5507757
            ],
            [
              121.0838749,
              15.5508106
            ],
            [
              121.0854158,
              15.5511259
            ],
            [
              121.0857028,
              15.551144
            ],
            [
              121.0863331,
              15.5510096
            ],
            [
              121.0867086,
              15.551007
            ],
            [
              121.0874891,
              15.5511982
            ],
            [
              121.0889858,
              15.5518959
            ],
            [
              121.0898656,
              15.5522783
            ],
            [
              121.0904878,
              15.5526298
            ],
            [
              121.0907346,
              15.5530484
            ],
            [
              121.0908312,
              15.5535703
            ],
            [
              121.0909922,
              15.5544317
            ],
            [
              121.0910189,
              15.5550845
            ],
            [
              121.0908472,
              15.5557615
            ],
            [
              121.0906327,
              15.5561853
            ],
            [
              121.0901284,
              15.5566401
            ],
            [
              121.0881543,
              15.5578184
            ],
            [
              121.0877144,
              15.5583248
            ],
            [
              121.0873175,
              15.559193
            ],
            [
              121.0871887,
              15.5603506
            ],
            [
              121.0874087,
              15.5623195
            ],
            [
              121.0877252,
              15.5640456
            ],
            [
              121.0876661,
              15.5647225
            ],
            [
              121.0875509,
              15.5650343
            ],
            [
              121.0872209,
              15.5659266
            ],
            [
              121.0869677,
              15.5664092
            ],
            [
              121.0867985,
              15.5667316
            ],
            [
              121.086781,
              15.5667831
            ],
            [
              121.0867847,
              15.566793
            ],
            [
              121.0867991,
              15.5668464
            ],
            [
              121.0867991,
              15.5668787
            ],
            [
              121.0867985,
              15.566922
            ],
            [
              121.0867549,
              15.5670505
            ],
            [
              121.0865982,
              15.5681306
            ],
            [
              121.086309,
              15.5695749
            ],
            [
              121.0860461,
              15.5706653
            ],
            [
              121.0857779,
              15.5712699
            ],
            [
              121.0855097,
              15.5719468
            ],
            [
              121.085059,
              15.5733059
            ],
            [
              121.0846674,
              15.5743342
            ],
            [
              121.0837662,
              15.5757346
            ],
            [
              121.0833692,
              15.5764529
            ],
            [
              121.0828274,
              15.5773365
            ],
            [
              121.082173,
              15.57868
            ],
            [
              121.0814595,
              15.5808038
            ],
            [
              121.0811323,
              15.5823488
            ],
            [
              121.0810894,
              15.5828552
            ],
            [
              121.0812691,
              15.5831755
            ],
            [
              121.0816634,
              15.5835269
            ],
            [
              121.0823286,
              15.5837749
            ],
            [
              121.0829374,
              15.5838188
            ],
            [
              121.0845655,
              15.5835631
            ],
            [
              121.0860407,
              15.582974
            ],
            [
              121.0871512,
              15.5824108
            ],
            [
              121.0878271,
              15.5818837
            ],
            [
              121.0883582,
              15.5815065
            ],
            [
              121.0889161,
              15.5811861
            ],
            [
              121.0906249,
              15.5806958
            ],
            [
              121.0940226,
              15.5802236
            ],
            [
              121.0956364,
              15.5807403
            ],
            [
              121.0972203,
              15.5813581
            ],
            [
              121.0998397,
              15.5813424
            ],
            [
              121.1019561,
              15.5809426
            ],
            [
              121.1059009,
              15.5810627
            ],
            [
              121.1083866,
              15.5833695
            ],
            [
              121.109731,
              15.5853443
            ],
            [
              121.1094091,
              15.5870776
            ],
            [
              121.1089434,
              15.5879019
            ],
            [
              121.106799,
              15.5883229
            ],
            [
              121.1037508,
              15.5888769
            ],
            [
              121.1010978,
              15.5899253
            ],
            [
              121.0983303,
              15.5904986
            ],
            [
              121.0965681,
              15.5913949
            ],
            [
              121.0947505,
              15.5938058
            ],
            [
              121.0944621,
              15.5953308
            ],
            [
              121.0953321,
              15.5987861
            ],
            [
              121.0957128,
              15.6021281
            ],
            [
              121.0959005,
              15.6028411
            ],
            [
              121.0960829,
              15.6031872
            ],
            [
              121.096437,
              15.6034972
            ],
            [
              121.0974026,
              15.6039312
            ],
            [
              121.0978585,
              15.6041482
            ],
            [
              121.098218,
              15.6044221
            ],
            [
              121.0989261,
              15.6050111
            ],
            [
              121.1005247,
              15.6062459
            ],
            [
              121.1024129,
              15.6075841
            ],
            [
              121.1029413,
              15.6079974
            ],
            [
              121.1035529,
              15.6082273
            ],
            [
              121.1038291,
              15.6082609
            ],
            [
              121.1041966,
              15.6082221
            ],
            [
              121.1044085,
              15.6080491
            ],
            [
              121.1046606,
              15.6075066
            ],
            [
              121.1047894,
              15.6067264
            ],
            [
              121.1047411,
              15.6059772
            ],
            [
              121.1046606,
              15.6046546
            ],
            [
              121.1047518,
              15.6038124
            ],
            [
              121.1051756,
              15.6026396
            ],
            [
              121.1062239,
              15.600815
            ],
            [
              121.1071229,
              15.5996067
            ],
            [
              121.1087698,
              15.5980049
            ],
            [
              121.1106956,
              15.5964084
            ],
            [
              121.1145636,
              15.5944998
            ],
            [
              121.1163953,
              15.5938637
            ],
            [
              121.1176211,
              15.5935097
            ],
            [
              121.1195925,
              15.5932152
            ],
            [
              121.1197668,
              15.5932436
            ],
            [
              121.1198929,
              15.5933134
            ],
            [
              121.1201262,
              15.5935821
            ],
            [
              121.1210623,
              15.5944191
            ],
            [
              121.1217409,
              15.5948893
            ],
            [
              121.1223176,
              15.5952226
            ],
            [
              121.123023,
              15.5954861
            ],
            [
              121.1246189,
              15.5959511
            ],
            [
              121.1260995,
              15.5958529
            ],
            [
              121.1269498,
              15.5956023
            ],
            [
              121.1277303,
              15.5951192
            ],
            [
              121.1284009,
              15.5943881
            ],
            [
              121.1288153,
              15.5944023
            ],
            [
              121.1289413,
              15.594432
            ],
            [
              121.1290231,
              15.5945018
            ],
            [
              121.1291331,
              15.59468
            ],
            [
              121.1291787,
              15.5947692
            ],
            [
              121.1295676,
              15.5957599
            ],
            [
              121.1296964,
              15.5963025
            ],
            [
              121.12975,
              15.5967959
            ],
            [
              121.129691,
              15.5970517
            ],
            [
              121.1294174,
              15.5974779
            ],
            [
              121.1290365,
              15.5977595
            ],
            [
              121.1283928,
              15.5979791
            ],
            [
              121.1274111,
              15.5982607
            ],
            [
              121.126754,
              15.5985733
            ],
            [
              121.1261934,
              15.5988781
            ],
            [
              121.1257201,
              15.5994718
            ],
            [
              121.125319,
              15.6002422
            ],
            [
              121.1251473,
              15.6008209
            ],
            [
              121.1250347,
              15.601477
            ],
            [
              121.1251606,
              15.6025165
            ],
            [
              121.1256289,
              15.6034453
            ],
            [
              121.1271958,
              15.6048933
            ],
            [
              121.1277224,
              15.605522
            ],
            [
              121.1281312,
              15.6056691
            ],
            [
              121.1285259,
              15.605745
            ],
            [
              121.1290298,
              15.6057566
            ],
            [
              121.1295267,
              15.6056393
            ],
            [
              121.1299107,
              15.605423
            ],
            [
              121.1299921,
              15.6051152
            ],
            [
              121.1302605,
              15.604798
            ],
            [
              121.1306512,
              15.6045173
            ],
            [
              121.1309165,
              15.6043891
            ],
            [
              121.1311782,
              15.604427
            ],
            [
              121.1314834,
              15.6046859
            ],
            [
              121.1319076,
              15.6048955
            ],
            [
              121.1321417,
              15.6052407
            ],
            [
              121.1321556,
              15.6056017
            ],
            [
              121.1321097,
              15.6060883
            ],
            [
              121.1321488,
              15.6066001
            ],
            [
              121.1324237,
              15.6070441
            ],
            [
              121.1325771,
              15.607286
            ],
            [
              121.1326205,
              15.6074255
            ],
            [
              121.1325863,
              15.6076261
            ],
            [
              121.1324076,
              15.6078792
            ],
            [
              121.1321275,
              15.6081279
            ],
            [
              121.1321094,
              15.6083812
            ],
            [
              121.1322311,
              15.608807
            ],
            [
              121.1325147,
              15.6091209
            ],
            [
              121.1330088,
              15.6092968
            ],
            [
              121.1333784,
              15.6091956
            ],
            [
              121.1338395,
              15.6090741
            ],
            [
              121.134445,
              15.6090073
            ],
            [
              121.1350225,
              15.6091725
            ],
            [
              121.1355226,
              15.6095615
            ],
            [
              121.1358774,
              15.6099929
            ],
            [
              121.1359436,
              15.6104175
            ],
            [
              121.1359633,
              15.6114422
            ],
            [
              121.1361266,
              15.6118006
            ],
            [
              121.1365011,
              15.6121319
            ],
            [
              121.1372846,
              15.6127491
            ],
            [
              121.1375325,
              15.6131122
            ],
            [
              121.1375866,
              15.6136373
            ],
            [
              121.1373222,
              15.6139969
            ],
            [
              121.1370812,
              15.6141554
            ],
            [
              121.1367592,
              15.6142698
            ],
            [
              121.1364206,
              15.6142848
            ],
            [
              121.1361856,
              15.6142458
            ],
            [
              121.1352826,
              15.6139524
            ],
            [
              121.1341468,
              15.6135292
            ],
            [
              121.133311,
              15.6134027
            ],
            [
              121.1328975,
              15.6131609
            ],
            [
              121.1326466,
              15.6128789
            ],
            [
              121.1325115,
              15.612678
            ],
            [
              121.1322137,
              15.6122588
            ],
            [
              121.1318384,
              15.6119277
            ],
            [
              121.1314557,
              15.6118241
            ],
            [
              121.1307984,
              15.6118798
            ],
            [
              121.1301446,
              15.6118915
            ],
            [
              121.1296878,
              15.6118118
            ],
            [
              121.129209,
              15.6116841
            ],
            [
              121.1287829,
              15.6117802
            ],
            [
              121.1284094,
              15.6120062
            ],
            [
              121.1282868,
              15.6123327
            ],
            [
              121.1280937,
              15.6127575
            ],
            [
              121.1276231,
              15.613702
            ],
            [
              121.1273407,
              15.6149774
            ],
            [
              121.1274328,
              15.6156026
            ],
            [
              121.1278157,
              15.6161911
            ],
            [
              121.1283077,
              15.6166915
            ],
            [
              121.1290025,
              15.6172091
            ],
            [
              121.1294756,
              15.6174016
            ],
            [
              121.1297746,
              15.6175233
            ],
            [
              121.130368,
              15.6178974
            ],
            [
              121.1309931,
              15.6181934
            ],
            [
              121.1315031,
              15.618621
            ],
            [
              121.1317069,
              15.6189604
            ],
            [
              121.1315678,
              15.6196896
            ],
            [
              121.1311016,
              15.6203286
            ],
            [
              121.1308925,
              15.6211222
            ],
            [
              121.1303078,
              15.6220356
            ],
            [
              121.1294998,
              15.6222511
            ],
            [
              121.1288312,
              15.6219284
            ],
            [
              121.1280448,
              15.6207676
            ],
            [
              121.1275541,
              15.6205759
            ],
            [
              121.1268578,
              15.6208298
            ],
            [
              121.1256503,
              15.6217581
            ],
            [
              121.1251225,
              15.6233923
            ],
            [
              121.1247212,
              15.6245857
            ],
            [
              121.1262626,
              15.6281614
            ],
            [
              121.1278143,
              15.6295918
            ],
            [
              121.1278752,
              15.6301811
            ],
            [
              121.1274336,
              15.6321717
            ],
            [
              121.1279252,
              15.6339546
            ],
            [
              121.1275981,
              15.6345874
            ],
            [
              121.1270385,
              15.6349688
            ],
            [
              121.1257362,
              15.6347178
            ],
            [
              121.1256612,
              15.6342833
            ],
            [
              121.1243862,
              15.6335387
            ],
            [
              121.1231148,
              15.6335238
            ],
            [
              121.1221778,
              15.634032
            ],
            [
              121.1216982,
              15.6347964
            ],
            [
              121.1159247,
              15.634881
            ],
            [
              121.1148159,
              15.6348014
            ],
            [
              121.1131258,
              15.6339722
            ],
            [
              121.1117148,
              15.6339977
            ],
            [
              121.1107034,
              15.635067
            ],
            [
              121.1037356,
              15.6355317
            ],
            [
              121.0873232,
              15.6280816
            ],
            [
              121.0829429,
              15.6281809
            ],
            [
              121.0651768,
              15.6363175
            ],
            [
              121.0602783,
              15.6325708
            ],
            [
              121.0565943,
              15.633188
            ],
            [
              121.0398995,
              15.6355907
            ],
            [
              121.0339645,
              15.6371569
            ],
            [
              121.0267914,
              15.6383759
            ],
            [
              121.0267317,
              15.6385624
            ],
            [
              121.0266329,
              15.6385476
            ],
            [
              121.0264895,
              15.638489
            ],
            [
              121.0262756,
              15.6385539
            ],
            [
              121.0261625,
              15.6386169
            ],
            [
              121.0260493,
              15.6386288
            ],
            [
              121.0259212,
              15.6384978
            ],
            [
              121.0258997,
              15.6383953
            ],
            [
              121.0259072,
              15.6382463
            ],
            [
              121.0259973,
              15.6381447
            ],
            [
              121.026068,
              15.6380199
            ],
            [
              121.0260943,
              15.6379048
            ],
            [
              121.0260288,
              15.6377525
            ],
            [
              121.0258641,
              15.6375048
            ],
            [
              121.0256271,
              15.637295
            ],
            [
              121.0254813,
              15.637083
            ],
            [
              121.0249772,
              15.6364148
            ],
            [
              121.0245231,
              15.6356503
            ],
            [
              121.0243259,
              15.6352253
            ],
            [
              121.0242463,
              15.6351178
            ],
            [
              121.0241135,
              15.6350754
            ],
            [
              121.0238327,
              15.6351221
            ],
            [
              121.0236409,
              15.6350273
            ],
            [
              121.0233134,
              15.6346266
            ],
            [
              121.0228516,
              15.6337983
            ],
            [
              121.0226532,
              15.6333371
            ],
            [
              121.0226004,
              15.6331206
            ],
            [
              121.0225199,
              15.6329308
            ],
            [
              121.0224675,
              15.6327441
            ],
            [
              121.0224912,
              15.6325541
            ],
            [
              121.0225536,
              15.6323795
            ],
            [
              121.0227371,
              15.6322248
            ],
            [
              121.0230226,
              15.6320837
            ],
            [
              121.0231293,
              15.6318799
            ],
            [
              121.0231758,
              15.6316407
            ],
            [
              121.0231322,
              15.6314415
            ],
            [
              121.022849,
              15.6310564
            ],
            [
              121.0225934,
              15.6308401
            ],
            [
              121.0223448,
              15.6307699
            ],
            [
              121.0219923,
              15.630773
            ],
            [
              121.0217516,
              15.6307728
            ],
            [
              121.0214784,
              15.6306864
            ],
            [
              121.021267,
              15.6304422
            ],
            [
              121.021187,
              15.6302252
            ],
            [
              121.021201,
              15.6301191
            ],
            [
              121.0212652,
              15.6299462
            ],
            [
              121.0213644,
              15.6297016
            ],
            [
              121.0215327,
              15.6294836
            ],
            [
              121.0215514,
              15.6293235
            ],
            [
              121.0215319,
              15.6291933
            ],
            [
              121.0213149,
              15.6288262
            ],
            [
              121.0211785,
              15.6286594
            ],
            [
              121.0210408,
              15.6284685
            ],
            [
              121.0209405,
              15.6282988
            ],
            [
              121.0209233,
              15.6281023
            ],
            [
              121.0209014,
              15.6279901
            ],
            [
              121.0209487,
              15.6278046
            ],
            [
              121.0210468,
              15.6275743
            ],
            [
              121.0211892,
              15.6271011
            ],
            [
              121.0212681,
              15.6268683
            ],
            [
              121.0212742,
              15.6267189
            ],
            [
              121.0212347,
              15.626605
            ],
            [
              121.0211502,
              15.6264777
            ],
            [
              121.0209673,
              15.6263064
            ],
            [
              121.0208698,
              15.6261704
            ],
            [
              121.0207447,
              15.6259011
            ],
            [
              121.0206891,
              15.6255848
            ],
            [
              121.0205816,
              15.6253251
            ],
            [
              121.020476,
              15.6252448
            ],
            [
              121.020277,
              15.6251044
            ],
            [
              121.0201024,
              15.6248993
            ],
            [
              121.0200649,
              15.6247403
            ],
            [
              121.0200897,
              15.6245413
            ],
            [
              121.0200666,
              15.6243378
            ],
            [
              121.0199829,
              15.6241826
            ],
            [
              121.0197083,
              15.6240348
            ],
            [
              121.0195067,
              15.6238085
            ],
            [
              121.019454,
              15.6237073
            ],
            [
              121.0194186,
              15.6235129
            ],
            [
              121.0194686,
              15.6233825
            ],
            [
              121.0195256,
              15.6232721
            ],
            [
              121.0197052,
              15.6231301
            ],
            [
              121.019902,
              15.6230981
            ],
            [
              121.0204398,
              15.6231834
            ],
            [
              121.0205625,
              15.623172
            ],
            [
              121.0207337,
              15.6230807
            ],
            [
              121.0208084,
              15.622962
            ],
            [
              121.0208693,
              15.6228032
            ],
            [
              121.0208068,
              15.6226822
            ],
            [
              121.0206509,
              15.6224512
            ],
            [
              121.0204201,
              15.6222808
            ],
            [
              121.0203351,
              15.6220903
            ],
            [
              121.0203005,
              15.6218831
            ],
            [
              121.0202676,
              15.6217177
            ],
            [
              121.0201612,
              15.6216099
            ],
            [
              121.0197798,
              15.6214418
            ],
            [
              121.0193985,
              15.6212418
            ],
            [
              121.0192952,
              15.62119
            ],
            [
              121.0192127,
              15.6210949
            ],
            [
              121.0191813,
              15.6210347
            ],
            [
              121.019198,
              15.620963
            ],
            [
              121.0193118,
              15.6207957
            ],
            [
              121.0195387,
              15.6207219
            ],
            [
              121.0196999,
              15.6206415
            ],
            [
              121.0197815,
              15.6205378
            ],
            [
              121.0199118,
              15.6203358
            ],
            [
              121.0200387,
              15.6200771
            ],
            [
              121.020108,
              15.6199098
            ],
            [
              121.020115,
              15.6197425
            ],
            [
              121.019937,
              15.6193507
            ],
            [
              121.0198266,
              15.6189774
            ],
            [
              121.0198479,
              15.6186686
            ],
            [
              121.019954,
              15.6184365
            ],
            [
              121.0200303,
              15.6181835
            ],
            [
              121.0200574,
              15.6180803
            ],
            [
              121.0201677,
              15.6179238
            ],
            [
              121.0203346,
              15.6177879
            ],
            [
              121.0204547,
              15.6177705
            ],
            [
              121.0205981,
              15.6178489
            ],
            [
              121.0208538,
              15.6179847
            ],
            [
              121.0210506,
              15.6182139
            ],
            [
              121.0211189,
              15.6182455
            ],
            [
              121.0211857,
              15.6182339
            ],
            [
              121.021256,
              15.618184
            ],
            [
              121.0213131,
              15.6180684
            ],
            [
              121.0214809,
              15.6174577
            ],
            [
              121.0215708,
              15.6172798
            ],
            [
              121.0218545,
              15.616991
            ],
            [
              121.0219202,
              15.6168939
            ],
            [
              121.022166,
              15.6162654
            ],
            [
              121.0221714,
              15.6161299
            ],
            [
              121.0221457,
              15.6160411
            ],
            [
              121.0220267,
              15.6159134
            ],
            [
              121.0219267,
              15.6157803
            ],
            [
              121.0219314,
              15.6156543
            ],
            [
              121.0220781,
              15.6153466
            ],
            [
              121.0222261,
              15.6151997
            ],
            [
              121.0223948,
              15.6151145
            ],
            [
              121.0225448,
              15.6149276
            ],
            [
              121.0226186,
              15.6147206
            ],
            [
              121.0226615,
              15.6145343
            ],
            [
              121.0225832,
              15.6141063
            ],
            [
              121.0225121,
              15.6139368
            ],
            [
              121.0223892,
              15.6137673
            ],
            [
              121.0222993,
              15.6137545
            ],
            [
              121.0220935,
              15.6138534
            ],
            [
              121.0219809,
              15.6138058
            ],
            [
              121.0219081,
              15.6136965
            ],
            [
              121.021923,
              15.6135634
            ],
            [
              121.021971,
              15.6133433
            ],
            [
              121.0219456,
              15.6131474
            ],
            [
              121.0217002,
              15.612923
            ],
            [
              121.0213254,
              15.6128125
            ],
            [
              121.0211151,
              15.6128454
            ],
            [
              121.0210275,
              15.6129488
            ],
            [
              121.0208781,
              15.613028
            ],
            [
              121.0206489,
              15.6129107
            ],
            [
              121.0203637,
              15.6126434
            ],
            [
              121.0202845,
              15.6124781
            ],
            [
              121.0201147,
              15.6124672
            ],
            [
              121.0200099,
              15.6125816
            ],
            [
              121.0199449,
              15.6127451
            ],
            [
              121.0199343,
              15.6129444
            ],
            [
              121.0199878,
              15.6130969
            ],
            [
              121.0200048,
              15.6132454
            ],
            [
              121.019905,
              15.6134072
            ],
            [
              121.0197845,
              15.6135556
            ],
            [
              121.0196622,
              15.613824
            ],
            [
              121.0194584,
              15.6140834
            ],
            [
              121.0192147,
              15.6141177
            ],
            [
              121.0189967,
              15.6140367
            ],
            [
              121.0186334,
              15.613909
            ],
            [
              121.0180725,
              15.6138902
            ],
            [
              121.0178949,
              15.613829
            ],
            [
              121.0178073,
              15.6137078
            ],
            [
              121.0178093,
              15.6136109
            ],
            [
              121.017851,
              15.6134073
            ],
            [
              121.0181033,
              15.6129793
            ],
            [
              121.0182108,
              15.6127049
            ],
            [
              121.0182662,
              15.6124505
            ],
            [
              121.0182733,
              15.6122494
            ],
            [
              121.0180589,
              15.6117466
            ],
            [
              121.0178532,
              15.6115035
            ],
            [
              121.0177412,
              15.6111262
            ],
            [
              121.017624,
              15.6106805
            ],
            [
              121.0174878,
              15.6103559
            ],
            [
              121.0172251,
              15.610005
            ],
            [
              121.0170148,
              15.6097672
            ],
            [
              121.0169115,
              15.609507
            ],
            [
              121.0167148,
              15.6090265
            ],
            [
              121.0166112,
              15.6088916
            ],
            [
              121.0164749,
              15.6088605
            ],
            [
              121.0162504,
              15.6089193
            ],
            [
              121.0158789,
              15.6091672
            ],
            [
              121.0157385,
              15.6091859
            ],
            [
              121.0155894,
              15.6091479
            ],
            [
              121.0150365,
              15.6088034
            ],
            [
              121.0146422,
              15.6084663
            ],
            [
              121.0143436,
              15.6080868
            ],
            [
              121.0139283,
              15.6076052
            ],
            [
              121.0136463,
              15.6073489
            ],
            [
              121.0133435,
              15.6071726
            ],
            [
              121.0131509,
              15.6071662
            ],
            [
              121.0127333,
              15.6073032
            ],
            [
              121.0122598,
              15.6075175
            ],
            [
              121.0120538,
              15.6075463
            ],
            [
              121.0118546,
              15.6075302
            ],
            [
              121.0116207,
              15.6074001
            ],
            [
              121.0113747,
              15.6071182
            ],
            [
              121.0112417,
              15.6068869
            ],
            [
              121.0112597,
              15.6065044
            ],
            [
              121.0113182,
              15.6064458
            ],
            [
              121.0114112,
              15.6064706
            ],
            [
              121.0115716,
              15.6065651
            ],
            [
              121.0117212,
              15.6065926
            ],
            [
              121.0118873,
              15.6065674
            ],
            [
              121.0120551,
              15.6064739
            ],
            [
              121.0121065,
              15.6063596
            ],
            [
              121.012092,
              15.6062082
            ],
            [
              121.0119806,
              15.6059802
            ],
            [
              121.0116521,
              15.6054932
            ],
            [
              121.0115923,
              15.6053774
            ],
            [
              121.0115722,
              15.6052299
            ],
            [
              121.0116563,
              15.6047374
            ],
            [
              121.0116261,
              15.6045644
            ],
            [
              121.0115145,
              15.6044664
            ],
            [
              121.0113598,
              15.604407
            ],
            [
              121.0110979,
              15.6044244
            ],
            [
              121.0108873,
              15.6045129
            ],
            [
              121.010623,
              15.6046748
            ],
            [
              121.0100545,
              15.6049462
            ],
            [
              121.0096128,
              15.6050139
            ],
            [
              121.0094172,
              15.6050722
            ],
            [
              121.0091591,
              15.6050995
            ],
            [
              121.008991,
              15.6050485
            ],
            [
              121.0088696,
              15.6049573
            ],
            [
              121.0086962,
              15.6047127
            ],
            [
              121.0085467,
              15.6045769
            ],
            [
              121.0084624,
              15.6045252
            ],
            [
              121.0080113,
              15.6043869
            ],
            [
              121.0078947,
              15.6043469
            ],
            [
              121.007849,
              15.604279
            ],
            [
              121.0078466,
              15.6041811
            ],
            [
              121.0078902,
              15.604072
            ],
            [
              121.0081621,
              15.6036638
            ],
            [
              121.0081959,
              15.6034031
            ],
            [
              121.0082873,
              15.6032121
            ],
            [
              121.0083528,
              15.6030745
            ],
            [
              121.0083009,
              15.6027893
            ],
            [
              121.0082581,
              15.6026861
            ],
            [
              121.0080006,
              15.6024362
            ],
            [
              121.0079852,
              15.6022966
            ],
            [
              121.0079854,
              15.6021138
            ],
            [
              121.0080329,
              15.6020357
            ],
            [
              121.0081686,
              15.6019576
            ],
            [
              121.0082654,
              15.601977
            ],
            [
              121.0086098,
              15.6021048
            ],
            [
              121.0087819,
              15.6020378
            ],
            [
              121.0088433,
              15.6019975
            ],
            [
              121.0092247,
              15.6016383
            ],
            [
              121.0094196,
              15.6014179
            ],
            [
              121.0096145,
              15.6012955
            ],
            [
              121.0097247,
              15.6008302
            ],
            [
              121.0097041,
              15.6006512
            ],
            [
              121.0096571,
              15.6005049
            ],
            [
              121.0095478,
              15.6004302
            ],
            [
              121.0091813,
              15.6005339
            ],
            [
              121.0088207,
              15.6007461
            ],
            [
              121.0086272,
              15.6007794
            ],
            [
              121.0083178,
              15.6006343
            ],
            [
              121.0078135,
              15.6002424
            ],
            [
              121.0077571,
              15.6000959
            ],
            [
              121.0078033,
              15.5998141
            ],
            [
              121.0078687,
              15.5996156
            ],
            [
              121.0079958,
              15.5995487
            ],
            [
              121.0084528,
              15.5995037
            ],
            [
              121.0085379,
              15.5994375
            ],
            [
              121.0085815,
              15.5993481
            ],
            [
              121.0085547,
              15.5992502
            ],
            [
              121.0085124,
              15.5991873
            ],
            [
              121.0083169,
              15.5991549
            ],
            [
              121.008106,
              15.5991568
            ],
            [
              121.0078285,
              15.5992976
            ],
            [
              121.007544,
              15.5993784
            ],
            [
              121.0074296,
              15.5993794
            ],
            [
              121.0072529,
              15.5993339
            ],
            [
              121.007031,
              15.5992727
            ],
            [
              121.0069115,
              15.5992424
            ],
            [
              121.0067695,
              15.599132
            ],
            [
              121.0065547,
              15.598858
            ],
            [
              121.0064273,
              15.5986921
            ],
            [
              121.0062584,
              15.5984712
            ],
            [
              121.0060815,
              15.5983223
            ],
            [
              121.0059703,
              15.59821
            ],
            [
              121.005957,
              15.5980899
            ],
            [
              121.0059957,
              15.5979732
            ],
            [
              121.0061923,
              15.5978401
            ],
            [
              121.0063855,
              15.5977936
            ],
            [
              121.0067669,
              15.5978263
            ],
            [
              121.0069335,
              15.5977774
            ],
            [
              121.0075432,
              15.5973484
            ],
            [
              121.0078517,
              15.5971733
            ],
            [
              121.0080043,
              15.5969121
            ],
            [
              121.0080096,
              15.596797
            ],
            [
              121.007911,
              15.5966753
            ],
            [
              121.0075975,
              15.59661
            ],
            [
              121.007428,
              15.5965039
            ],
            [
              121.0073836,
              15.5964177
            ],
            [
              121.0073911,
              15.5962814
            ],
            [
              121.0074706,
              15.5961113
            ],
            [
              121.0076229,
              15.5959162
            ],
            [
              121.0078762,
              15.5958168
            ],
            [
              121.0080861,
              15.5956656
            ],
            [
              121.0083666,
              15.5955342
            ],
            [
              121.0085277,
              15.5954545
            ],
            [
              121.0086145,
              15.5953284
            ],
            [
              121.0085893,
              15.5952081
            ],
            [
              121.0085294,
              15.5951311
            ],
            [
              121.0084191,
              15.5951059
            ],
            [
              121.00807,
              15.5950841
            ],
            [
              121.0079318,
              15.5950723
            ],
            [
              121.0077711,
              15.5949588
            ],
            [
              121.0075805,
              15.5946754
            ],
            [
              121.007543,
              15.5944973
            ],
            [
              121.0075297,
              15.5942591
            ],
            [
              121.0075946,
              15.5940157
            ],
            [
              121.0076144,
              15.5937856
            ],
            [
              121.0076016,
              15.5935682
            ],
            [
              121.0075127,
              15.5933775
            ],
            [
              121.0073443,
              15.593222
            ],
            [
              121.0071743,
              15.5930816
            ],
            [
              121.0070208,
              15.5930339
            ],
            [
              121.0068794,
              15.5930379
            ],
            [
              121.006762,
              15.5931664
            ],
            [
              121.0065577,
              15.5932246
            ],
            [
              121.0064209,
              15.5931912
            ],
            [
              121.0062754,
              15.5931244
            ],
            [
              121.0061633,
              15.593023
            ],
            [
              121.00587,
              15.5927375
            ],
            [
              121.0056819,
              15.5925129
            ],
            [
              121.0055795,
              15.5923241
            ],
            [
              121.005555,
              15.5921204
            ],
            [
              121.0057327,
              15.5916768
            ],
            [
              121.0057247,
              15.5915058
            ],
            [
              121.0056665,
              15.5913331
            ],
            [
              121.0054827,
              15.5910372
            ],
            [
              121.0053317,
              15.5907946
            ],
            [
              121.0051567,
              15.5904224
            ],
            [
              121.005117,
              15.5900815
            ],
            [
              121.0051397,
              15.5897939
            ],
            [
              121.0053516,
              15.5895
            ],
            [
              121.0054059,
              15.5891506
            ],
            [
              121.0054024,
              15.5889367
            ],
            [
              121.00523,
              15.5886079
            ],
            [
              121.0052432,
              15.588489
            ],
            [
              121.0053516,
              15.5881367
            ],
            [
              121.0053082,
              15.5879209
            ],
            [
              121.005199,
              15.5878184
            ],
            [
              121.0050626,
              15.5877518
            ],
            [
              121.0045631,
              15.5875411
            ],
            [
              121.004116,
              15.5873238
            ],
            [
              121.0037468,
              15.5871649
            ],
            [
              121.0033585,
              15.5869897
            ],
            [
              121.0030689,
              15.5869129
            ],
            [
              121.0027667,
              15.5868959
            ],
            [
              121.0025452,
              15.5868441
            ],
            [
              121.0023514,
              15.586749
            ],
            [
              121.0020448,
              15.5865005
            ],
            [
              121.002022,
              15.586365
            ],
            [
              121.0020788,
              15.5861312
            ],
            [
              121.0020712,
              15.5859668
            ],
            [
              121.0020005,
              15.5858132
            ],
            [
              121.0018397,
              15.5857329
            ],
            [
              121.0016679,
              15.5857259
            ],
            [
              121.0013127,
              15.5857756
            ],
            [
              121.0009276,
              15.5859816
            ],
            [
              121.0007056,
              15.5859679
            ],
            [
              121.0005731,
              15.5858831
            ],
            [
              121.0004805,
              15.5856583
            ],
            [
              121.0003888,
              15.5854015
            ],
            [
              121.0002888,
              15.5852142
            ],
            [
              121.0002444,
              15.5850522
            ],
            [
              121.0002622,
              15.5850036
            ],
            [
              121.0003741,
              15.5848031
            ],
            [
              121.0005263,
              15.5843912
            ],
            [
              121.0005971,
              15.5839244
            ],
            [
              121.0005567,
              15.5837606
            ],
            [
              121.0004956,
              15.5836269
            ],
            [
              121.0003915,
              15.5835451
            ],
            [
              121.0001905,
              15.5834699
            ],
            [
              121.000048,
              15.5834804
            ],
            [
              120.9998951,
              15.5835627
            ],
            [
              120.9997494,
              15.5836627
            ],
            [
              120.9995631,
              15.583796
            ],
            [
              120.9994812,
              15.583896
            ],
            [
              120.999435,
              15.5840132
            ],
            [
              120.9994204,
              15.5841616
            ],
            [
              120.9994257,
              15.5843292
            ],
            [
              120.9993979,
              15.5844262
            ],
            [
              120.9993322,
              15.5845083
            ],
            [
              120.9992347,
              15.5845713
            ],
            [
              120.9991283,
              15.5846123
            ],
            [
              120.9990377,
              15.5846265
            ],
            [
              120.9989038,
              15.5846186
            ],
            [
              120.9987738,
              15.5845762
            ],
            [
              120.9986275,
              15.5845131
            ],
            [
              120.9985122,
              15.5844062
            ],
            [
              120.9984127,
              15.5842706
            ],
            [
              120.998321,
              15.5841026
            ],
            [
              120.9982423,
              15.5840325
            ],
            [
              120.9981676,
              15.5839279
            ],
            [
              120.9981452,
              15.5838105
            ],
            [
              120.9981591,
              15.5837058
            ],
            [
              120.998185,
              15.5836086
            ],
            [
              120.9982698,
              15.5834378
            ],
            [
              120.998272,
              15.5833279
            ],
            [
              120.9982443,
              15.5832198
            ],
            [
              120.9981861,
              15.5831409
            ],
            [
              120.9980961,
              15.5830964
            ],
            [
              120.9979392,
              15.5830224
            ],
            [
              120.9977782,
              15.5829445
            ],
            [
              120.9976779,
              15.5828784
            ],
            [
              120.9975975,
              15.5827836
            ],
            [
              120.9974923,
              15.5826552
            ],
            [
              120.9973944,
              15.582574
            ],
            [
              120.9973004,
              15.5825444
            ],
            [
              120.9971255,
              15.582543
            ],
            [
              120.9969506,
              15.5825205
            ],
            [
              120.9968334,
              15.5824609
            ],
            [
              120.996758,
              15.5823897
            ],
            [
              120.9966863,
              15.5822767
            ],
            [
              120.9966487,
              15.5821693
            ],
            [
              120.9966309,
              15.5820542
            ],
            [
              120.9966408,
              15.5819248
            ],
            [
              120.9966764,
              15.5817973
            ],
            [
              120.9967259,
              15.5816911
            ],
            [
              120.9967953,
              15.5815772
            ],
            [
              120.9969855,
              15.5814295
            ],
            [
              120.9971478,
              15.5812779
            ],
            [
              120.9971803,
              15.5812023
            ],
            [
              120.9971731,
              15.5811381
            ],
            [
              120.99715,
              15.5810594
            ],
            [
              120.9970895,
              15.580999
            ],
            [
              120.9968789,
              15.5808741
            ],
            [
              120.9967707,
              15.5807791
            ],
            [
              120.9966743,
              15.5807185
            ],
            [
              120.996562,
              15.5806592
            ],
            [
              120.9964576,
              15.5805807
            ],
            [
              120.9963719,
              15.5804691
            ],
            [
              120.9963457,
              15.5803574
            ],
            [
              120.996353,
              15.5802624
            ],
            [
              120.9963981,
              15.580177
            ],
            [
              120.9964675,
              15.5800761
            ],
            [
              120.9965488,
              15.5799943
            ],
            [
              120.996685,
              15.5799174
            ],
            [
              120.9967421,
              15.5798724
            ],
            [
              120.9967794,
              15.5798006
            ],
            [
              120.9967547,
              15.5797136
            ],
            [
              120.9966902,
              15.5796304
            ],
            [
              120.9965757,
              15.5795663
            ],
            [
              120.9964532,
              15.5795442
            ],
            [
              120.9962951,
              15.5795395
            ],
            [
              120.9961371,
              15.5794966
            ],
            [
              120.9959798,
              15.5793916
            ],
            [
              120.9958441,
              15.5792392
            ],
            [
              120.9957468,
              15.5791327
            ],
            [
              120.9956792,
              15.5789955
            ],
            [
              120.9956274,
              15.5788054
            ],
            [
              120.9955711,
              15.5786945
            ],
            [
              120.9954592,
              15.5785799
            ],
            [
              120.9953545,
              15.5785265
            ],
            [
              120.9952325,
              15.5785039
            ],
            [
              120.9950582,
              15.5785321
            ],
            [
              120.994868,
              15.57861
            ],
            [
              120.994627,
              15.5787397
            ],
            [
              120.9943899,
              15.5788923
            ],
            [
              120.9942048,
              15.5789112
            ],
            [
              120.9940012,
              15.5788686
            ],
            [
              120.9937917,
              15.5787896
            ],
            [
              120.993663,
              15.5787795
            ],
            [
              120.9935343,
              15.5788192
            ],
            [
              120.9934358,
              15.5788794
            ],
            [
              120.9933416,
              15.5790059
            ],
            [
              120.9931561,
              15.5791286
            ],
            [
              120.9929547,
              15.5792182
            ],
            [
              120.9927005,
              15.5792672
            ],
            [
              120.9924349,
              15.5792736
            ],
            [
              120.9921923,
              15.5792196
            ],
            [
              120.9919761,
              15.5790234
            ],
            [
              120.9915713,
              15.5788059
            ],
            [
              120.9914272,
              15.5786344
            ],
            [
              120.9912092,
              15.578585
            ],
            [
              120.9910093,
              15.5784531
            ],
            [
              120.9908918,
              15.578245
            ],
            [
              120.9908953,
              15.5773853
            ],
            [
              120.9908739,
              15.5770907
            ],
            [
              120.9908205,
              15.5768885
            ],
            [
              120.9907392,
              15.5766134
            ],
            [
              120.9907621,
              15.576433
            ],
            [
              120.9910127,
              15.5761216
            ],
            [
              120.9922518,
              15.5751768
            ],
            [
              120.992078,
              15.5745146
            ],
            [
              120.9917458,
              15.5740675
            ],
            [
              120.9912248,
              15.5739393
            ],
            [
              120.9905376,
              15.5741187
            ],
            [
              120.9904714,
              15.5740324
            ],
            [
              120.9904608,
              15.5740217
            ],
            [
              120.9903989,
              15.5739657
            ],
            [
              120.9903409,
              15.5739086
            ],
            [
              120.9902253,
              15.5737321
            ],
            [
              120.9900194,
              15.5735555
            ],
            [
              120.9898255,
              15.5733924
            ],
            [
              120.9897831,
              15.5732365
            ],
            [
              120.9897611,
              15.5730976
            ],
            [
              120.9897984,
              15.5729081
            ],
            [
              120.9900032,
              15.5727103
            ],
            [
              120.990208,
              15.5725712
            ],
            [
              120.990311,
              15.5724077
            ],
            [
              120.9903479,
              15.5722344
            ],
            [
              120.9903465,
              15.5720282
            ],
            [
              120.990279,
              15.5717387
            ],
            [
              120.990002,
              15.571139
            ],
            [
              120.9899777,
              15.5709529
            ],
            [
              120.9899687,
              15.5707129
            ],
            [
              120.9899151,
              15.5704973
            ],
            [
              120.9898546,
              15.5703771
            ],
            [
              120.9897788,
              15.5703303
            ],
            [
              120.9897085,
              15.570315
            ],
            [
              120.9895832,
              15.5703286
            ],
            [
              120.9894188,
              15.5703447
            ],
            [
              120.9893163,
              15.5703184
            ],
            [
              120.9892747,
              15.5702579
            ],
            [
              120.9892414,
              15.5701391
            ],
            [
              120.9891993,
              15.5699695
            ],
            [
              120.9892131,
              15.5698244
            ],
            [
              120.9894795,
              15.5693436
            ],
            [
              120.9895923,
              15.5691106
            ],
            [
              120.9896335,
              15.568923
            ],
            [
              120.9896569,
              15.5687453
            ],
            [
              120.9896239,
              15.5685519
            ],
            [
              120.9895706,
              15.568422
            ],
            [
              120.9894336,
              15.5682578
            ],
            [
              120.9891267,
              15.5681501
            ],
            [
              120.9889751,
              15.5681415
            ],
            [
              120.9888234,
              15.5681036
            ],
            [
              120.9886928,
              15.568013
            ],
            [
              120.9884859,
              15.5676643
            ],
            [
              120.9883399,
              15.5673842
            ],
            [
              120.9882658,
              15.567271
            ],
            [
              120.988146,
              15.5671823
            ],
            [
              120.9879927,
              15.5671175
            ],
            [
              120.9877605,
              15.5670046
            ],
            [
              120.98763,
              15.5669137
            ],
            [
              120.987562,
              15.5668053
            ],
            [
              120.9875332,
              15.5666646
            ],
            [
              120.9875416,
              15.5664621
            ],
            [
              120.9875764,
              15.5663144
            ],
            [
              120.9875806,
              15.5661813
            ],
            [
              120.9875468,
              15.5660222
            ],
            [
              120.9874063,
              15.5657407
            ],
            [
              120.9872709,
              15.5655253
            ],
            [
              120.9871354,
              15.5653736
            ],
            [
              120.9869529,
              15.5652705
            ],
            [
              120.9867654,
              15.565182
            ],
            [
              120.9864919,
              15.5650884
            ],
            [
              120.98614,
              15.5649298
            ],
            [
              120.9857983,
              15.5648152
            ],
            [
              120.9854835,
              15.564577
            ],
            [
              120.9852401,
              15.5644478
            ],
            [
              120.9849221,
              15.5642628
            ],
            [
              120.9846408,
              15.5640283
            ],
            [
              120.9844324,
              15.5638046
            ],
            [
              120.9842933,
              15.5636602
            ],
            [
              120.9841859,
              15.5635741
            ],
            [
              120.984038,
              15.563527
            ],
            [
              120.9838095,
              15.5635366
            ],
            [
              120.9836878,
              15.563558
            ],
            [
              120.9835844,
              15.5636395
            ],
            [
              120.9834399,
              15.5637658
            ],
            [
              120.9832973,
              15.5638391
            ],
            [
              120.9832428,
              15.5638354
            ],
            [
              120.9831993,
              15.5638034
            ],
            [
              120.9831271,
              15.5637465
            ],
            [
              120.9830781,
              15.5637459
            ],
            [
              120.9830499,
              15.5636916
            ],
            [
              120.9829643,
              15.5635796
            ],
            [
              120.9828959,
              15.5635395
            ],
            [
              120.9827369,
              15.5634983
            ],
            [
              120.982375,
              15.5633898
            ],
            [
              120.9823194,
              15.5633565
            ],
            [
              120.9822786,
              15.5633055
            ],
            [
              120.9822556,
              15.5632141
            ],
            [
              120.9822462,
              15.5630817
            ],
            [
              120.9822881,
              15.5629458
            ],
            [
              120.9823427,
              15.5628067
            ],
            [
              120.9824628,
              15.5625676
            ],
            [
              120.9825146,
              15.5624454
            ],
            [
              120.9825479,
              15.5623259
            ],
            [
              120.9825627,
              15.5622259
            ],
            [
              120.9825573,
              15.5621381
            ],
            [
              120.9825335,
              15.5620378
            ],
            [
              120.9824344,
              15.5619329
            ],
            [
              120.9822988,
              15.5618293
            ],
            [
              120.9821083,
              15.5617318
            ],
            [
              120.9818963,
              15.5616677
            ],
            [
              120.981749,
              15.561622
            ],
            [
              120.9816016,
              15.5616294
            ],
            [
              120.9814355,
              15.5616654
            ],
            [
              120.9812198,
              15.5617314
            ],
            [
              120.981112,
              15.561791
            ],
            [
              120.9810372,
              15.5618506
            ],
            [
              120.9809359,
              15.5619322
            ],
            [
              120.9808309,
              15.5619502
            ],
            [
              120.9807055,
              15.56194
            ],
            [
              120.9805547,
              15.561883
            ],
            [
              120.9804406,
              15.5618296
            ],
            [
              120.9802125,
              15.5616873
            ],
            [
              120.9798187,
              15.561424
            ],
            [
              120.9795915,
              15.5613204
            ],
            [
              120.9794222,
              15.5612772
            ],
            [
              120.9792769,
              15.56125
            ],
            [
              120.9791001,
              15.5612309
            ],
            [
              120.9789633,
              15.5611997
            ],
            [
              120.9787786,
              15.5610642
            ],
            [
              120.9786233,
              15.5608933
            ],
            [
              120.9784496,
              15.5606861
            ],
            [
              120.9782797,
              15.5605142
            ],
            [
              120.978184,
              15.560383
            ],
            [
              120.9780663,
              15.5603013
            ],
            [
              120.9779265,
              15.5602335
            ],
            [
              120.9776173,
              15.5602207
            ],
            [
              120.9774221,
              15.5601937
            ],
            [
              120.9772081,
              15.5601327
            ],
            [
              120.9770702,
              15.5601275
            ],
            [
              120.9769851,
              15.5600797
            ],
            [
              120.976731,
              15.5598408
            ],
            [
              120.9765993,
              15.5597851
            ],
            [
              120.9765044,
              15.5597187
            ],
            [
              120.9764132,
              15.5596365
            ],
            [
              120.9763551,
              15.559586
            ],
            [
              120.9763267,
              15.5595295
            ],
            [
              120.976324,
              15.5594499
            ],
            [
              120.9763554,
              15.5593421
            ],
            [
              120.9764423,
              15.5592193
            ],
            [
              120.9765807,
              15.559093
            ],
            [
              120.9767209,
              15.5589543
            ],
            [
              120.9768391,
              15.5587944
            ],
            [
              120.9769275,
              15.5586842
            ],
            [
              120.9769773,
              15.5585991
            ],
            [
              120.9770105,
              15.5584962
            ],
            [
              120.977032,
              15.558409
            ],
            [
              120.9770351,
              15.5583324
            ],
            [
              120.9770267,
              15.558243
            ],
            [
              120.9769657,
              15.5581881
            ],
            [
              120.9768108,
              15.5580941
            ],
            [
              120.9767185,
              15.5580296
            ],
            [
              120.9766336,
              15.5579403
            ],
            [
              120.9765336,
              15.557907
            ],
            [
              120.9763592,
              15.5578968
            ],
            [
              120.9761832,
              15.5578694
            ],
            [
              120.9760626,
              15.5577935
            ],
            [
              120.9759548,
              15.5577352
            ],
            [
              120.9758469,
              15.557638
            ],
            [
              120.97569,
              15.5574259
            ],
            [
              120.9755121,
              15.5570725
            ],
            [
              120.9753378,
              15.5569262
            ],
            [
              120.9752077,
              15.5567728
            ],
            [
              120.9750894,
              15.5566145
            ],
            [
              120.9749491,
              15.5564739
            ],
            [
              120.9746906,
              15.5562458
            ],
            [
              120.9745225,
              15.5560551
            ],
            [
              120.9744141,
              15.5559045
            ],
            [
              120.9743056,
              15.5557963
            ],
            [
              120.9741806,
              15.5556756
            ],
            [
              120.9741216,
              15.5555792
            ],
            [
              120.974066,
              15.5554361
            ],
            [
              120.9739824,
              15.5551534
            ],
            [
              120.9738836,
              15.5549279
            ],
            [
              120.9738049,
              15.5548317
            ],
            [
              120.9737649,
              15.5547621
            ],
            [
              120.9737522,
              15.5546512
            ],
            [
              120.9737477,
              15.5545427
            ],
            [
              120.973734,
              15.5544589
            ],
            [
              120.9737424,
              15.5543597
            ],
            [
              120.973798,
              15.5542357
            ],
            [
              120.9738589,
              15.5541578
            ],
            [
              120.9739786,
              15.554133
            ],
            [
              120.9754639,
              15.5536737
            ],
            [
              120.9815752,
              15.551359
            ]
          ]
        ]
      },
      "id": "relation/15076601"
    },
    {
      "type": "Feature",
      "properties": {
        "@id": "node/198498306",
        "@relations": [
          {
            "role": "label",
            "rel": 15076601,
            "reltags": {
              "admin_level": "6",
              "boundary": "administrative",
              "name": "General Mamerto Natividad",
              "name:ko": "헤네랄마메르토나티비다드",
              "old_ref": "034909000",
              "population": "44311",
              "population:date": "2020-05-01",
              "ref": "0304909000",
              "source:population": "Philippine Statistics Authority",
              "type": "boundary",
              "wikidata": "Q55549",
              "wikipedia": "en:General Mamerto Natividad"
            }
          }
        ]
      },
      "geometry": {
        "type": "Point",
        "coordinates": [
          121.0508107,
          15.6030982
        ]
      },
      "id": "node/198498306"
    }
  ]
}